NORAD_CAT_ID,OBJECT_NAME,OBJECT_TYPE,EPOCH,MEAN_MOTION,ECCENTRICITY,INCLINATION,RA_OF_ASC_NODE,ARG_OF_PERICENTER,MEAN_ANOMALY,BSTAR,MEAN_MOTION_DOT,MEAN_MOTION_DDOT,TLE_LINE0,TLE_LINE1,TLE_LINE2,SEMIMAJOR_AXIS,PERIOD,APOGEE,PERIGEE,DECAYED
51895.0,STARLINK-3594,PAYLOAD,2024-02-28 10:25:01,15.08837635,0.0001533,53.2176,82.2553,91.3471,268.7697,6.1794e-05,6.96e-06,0.0,0 STARLINK-3594,1 51895U 22022AV  24059.43404924  .00000696  00000-0  61794-4 0  9998,2 51895  53.2176  82.2553 0001533  91.3471 268.7697 15.08837635111493,6917.888,95.438,540.813,538.692,0.0
51895.0,STARLINK-3594,PAYLOAD,2024-02-28 18:21:57,15.08838913,0.0001602,53.2176,80.7684,91.0134,269.1041,1.3061e-05,-8e-07,0.0,0 STARLINK-3594,1 51895U 22022AV  24059.76525014 -.00000080  00000-0  13061-4 0  9990,2 51895  53.2176  80.7684 0001602  91.0134 269.1041 15.08838913111545,6917.884,95.438,540.857,538.64,0.0
51895.0,STARLINK-3594,PAYLOAD,2024-02-29 08:40:25,15.08840425,0.000158,53.2177,78.0919,90.001,270.1163,0.00010056,1.313e-05,0.0,0 STARLINK-3594,1 51895U 22022AV  24060.36140913  .00001313  00000-0  10056-3 0  9998,2 51895  53.2177  78.0919 0001580  90.0010 270.1163 15.08840425111632,6917.879,95.438,540.837,538.651,0.0
51895.0,STARLINK-3594,PAYLOAD,2024-02-29 18:12:44,15.08839331,0.0001668,53.2181,76.3066,83.4868,276.6314,9.7316e-05,1.261e-05,0.0,0 STARLINK-3594,1 51895U 22022AV  24060.75885031  .00001261  00000-0  97316-4 0  9995,2 51895  53.2181  76.3066 0001668  83.4868 276.6314 15.08839331111694,6917.882,95.438,540.901,538.594,0.0
51895.0,STARLINK-3594,PAYLOAD,2024-03-01 10:06:36,15.08840825,0.0001672,53.2184,73.3308,86.3126,273.8057,7.3224e-05,8.78e-06,0.0,0 STARLINK-3594,1 51895U 22022AV  24061.42125130  .00000878  00000-0  73224-4 0  9992,2 51895  53.2184  73.3308 0001672  86.3126 273.8057 15.08840825111791,6917.878,95.438,540.9,538.586,0.0
51895.0,STARLINK-3594,PAYLOAD,2024-03-01 18:03:31,15.08842157,0.0001688,53.2187,71.8455,85.7335,274.385,8.7754e-05,1.109e-05,0.0,0 STARLINK-3594,1 51895U 22022AV  24061.75245010  .00001109  00000-0  87754-4 0  9999,2 51895  53.2187  71.8455 0001688  85.7335 274.3850 15.08842157111845,6917.874,95.437,540.907,538.571,0.0
51895.0,STARLINK-3594,PAYLOAD,2024-03-02 06:46:36,15.0884699,0.0001751,53.2185,69.4678,83.8264,276.2927,8.2181e-05,1.02e-05,0.0,0 STARLINK-3594,1 51895U 22022AV  24062.28236718  .00001020  00000-0  82181-4 0  9994,2 51895  53.2185  69.4678 0001751  83.8264 276.2927 15.08846990111928,6917.859,95.437,540.935,538.513,0.0
51895.0,STARLINK-3594,PAYLOAD,2024-03-02 17:54:18,15.08849085,0.0001639,53.2186,67.3862,89.8344,270.2836,4.5498e-05,4.36e-06,0.0,0 STARLINK-3594,1 51895U 22022AV  24062.74604461  .00000436  00000-0  45498-4 0  9999,2 51895  53.2186  67.3862 0001639  89.8344 270.2836 15.08849085111999,6917.853,95.437,540.851,538.584,0.0
51895.0,STARLINK-3594,PAYLOAD,2024-03-03 05:02:00,15.08839582,0.0001589,53.217,65.3052,94.2836,265.8338,6.9633e-05,8.2e-06,0.0,0 STARLINK-3594,1 51895U 22022AV  24063.20972979  .00000820  00000-0  69633-4 0  9997,2 51895  53.2170  65.3052 0001589  94.2836 265.8338 15.08839582112068,6917.882,95.438,540.846,538.647,0.0
51895.0,STARLINK-3594,PAYLOAD,2024-03-03 06:37:23,15.08839528,0.0001424,53.2167,65.0071,98.5601,261.5552,9.4082e-05,1.21e-05,0.0,0 STARLINK-3594,1 51895U 22022AV  24063.27596860  .00001210  00000-0  94082-4 0  9995,2 51895  53.2167  65.0071 0001424  98.5601 261.5552 15.08839528112079,6917.882,95.438,540.732,538.762,0.0
51895.0,STARLINK-3594,PAYLOAD,2024-03-04 06:28:10,15.08847788,0.0001531,53.217,60.5475,103.9614,256.1549,2.5878e-05,1.24e-06,0.0,0 STARLINK-3594,1 51895U 22022AV  24064.26956571  .00000124  00000-0  25878-4 0  9994,2 51895  53.2170  60.5475 0001531 103.9614 256.1549 15.08847788112225,6917.857,95.437,540.781,538.662,0.0
51895.0,STARLINK-3594,PAYLOAD,2024-03-05 03:08:12,15.08825106,0.0001395,53.2174,56.6802,100.4811,259.6338,3.9813e-05,3.46e-06,0.0,0 STARLINK-3594,1 51895U 22022AV  24065.13070279  .00000346  00000-0  39813-4 0  9993,2 51895  53.2174  56.6802 0001395 100.4811 259.6338 15.08825106112356,6917.926,95.438,540.756,538.826,0.0
51895.0,STARLINK-3594,PAYLOAD,2024-03-05 09:29:45,15.08831759,0.0001526,53.2174,55.4935,97.6744,262.4422,1.7484e-05,-1e-07,0.0,0 STARLINK-3594,1 51895U 22022AV  24065.39566141 -.00000010  00000-0  17484-4 0  9998,2 51895  53.2174  55.4935 0001526  97.6744 262.4422 15.08831759112399,6917.906,95.438,540.826,538.715,0.0
51895.0,STARLINK-3594,PAYLOAD,2024-03-05 15:51:17,15.08832358,0.000151,53.2174,54.3037,97.3317,262.7847,4.9816e-05,5.05e-06,0.0,0 STARLINK-3594,1 51895U 22022AV  24065.66062230  .00000505  00000-0  49816-4 0  9990,2 51895  53.2174  54.3037 0001510  97.3317 262.7847 15.08832358112431,6917.904,95.438,540.813,538.724,0.0
51895.0,STARLINK-3594,PAYLOAD,2024-03-06 06:09:45,15.08842504,0.0001483,53.2177,51.6271,102.4516,257.6642,8.2703e-05,1.029e-05,0.0,0 STARLINK-3594,1 51895U 22022AV  24066.25677774  .00001029  00000-0  82703-4 0  9995,2 51895  53.2177  51.6271 0001483 102.4516 257.6642 15.08842504112522,6917.873,95.437,540.764,538.712,0.0
51895.0,STARLINK-3594,PAYLOAD,2024-03-07 04:25:10,15.08837006,0.000139,53.2172,47.4638,86.9313,273.1838,0.00013953,1.933e-05,0.0,0 STARLINK-3594,1 51895U 22022AV  24067.18414400  .00001933  00000-0  13953-3 0  9997,2 51895  53.2172  47.4638 0001390  86.9313 273.1838 15.08837006112661,6917.89,95.438,540.716,538.793,0.0
51895.0,STARLINK-3594,PAYLOAD,2024-03-07 06:00:32,15.0884012,0.0001413,53.2165,47.1664,83.7983,276.317,0.00013512,1.863e-05,0.0,0 STARLINK-3594,1 51895U 22022AV  24067.25038151  .00001863  00000-0  13512-3 0  9993,2 51895  53.2165  47.1664 0001413  83.7983 276.3170 15.08840120112679,6917.88,95.438,540.723,538.768,0.0
51895.0,STARLINK-3594,PAYLOAD,2024-03-08 05:51:20,15.08835191,0.00014,53.2169,42.7059,83.3059,276.8093,-6.7798e-05,-1.367e-05,0.0,0 STARLINK-3594,1 51895U 22022AV  24068.24398299 -.00001367  00000-0 -67798-4 0  9992,2 51895  53.2169  42.7059 0001400  83.3059 276.8093 15.08835191112826,6917.895,95.438,540.729,538.792,0.0
51895.0,STARLINK-3594,PAYLOAD,2024-03-09 07:17:29,15.08850438,0.0001317,53.2174,37.9489,100.389,259.725,0.00017119,2.438e-05,0.0,0 STARLINK-3594,1 51895U 22022AV  24069.30381726  .00002438  00000-0  17119-3 0  9996,2 51895  53.2174  37.9489 0001317 100.3890 259.7250 15.08850438112988,6917.848,95.437,540.625,538.802,0.0
51895.0,STARLINK-3594,PAYLOAD,2024-03-10 03:57:31,15.0883959,0.0001443,53.2182,34.0816,87.5801,272.5356,0.000165,2.339e-05,0.0,0 STARLINK-3594,1 51895U 22022AV  24070.16494366  .00002339  00000-0  16500-3 0  9990,2 51895  53.2182  34.0816 0001443  87.5801 272.5356 15.08839590113119,6917.882,95.438,540.745,538.748,0.0
51895.0,STARLINK-3594,PAYLOAD,2024-03-10 21:26:45,15.08843775,0.0001991,53.2185,30.81,90.5444,269.5776,3.2789e-05,2.34e-06,0.0,0 STARLINK-3594,1 51895U 22022AV  24070.89358190  .00000234  00000-0  32789-4 0  9994,2 51895  53.2185  30.8100 0001991  90.5444 269.5776 15.08843775113221,6917.869,95.437,541.111,538.357,0.0
51895.0,STARLINK-3594,PAYLOAD,2024-03-11 06:59:04,15.08841963,0.0001667,53.2195,29.0241,108.0747,252.0427,2.7853e-05,1.55e-06,0.0,0 STARLINK-3594,1 51895U 22022AV  24071.29102189  .00000155  00000-0  27853-4 0  9992,2 51895  53.2195  29.0241 0001667 108.0747 252.0427 15.08841963113282,6917.874,95.437,540.893,538.586,0.0
51895.0,STARLINK-3594,PAYLOAD,2024-03-12 13:11:23,15.08843268,0.0001504,53.2193,23.3754,100.8888,259.2274,0.00012089,1.637e-05,0.0,0 STARLINK-3594,1 51895U 22022AV  24072.54957984  .00001637  00000-0  12089-3 0  9992,2 51895  53.2193  23.3754 0001504 100.8888 259.2274 15.08843268113472,6917.87,95.437,540.776,538.695,0.0
51895.0,STARLINK-3594,PAYLOAD,2024-03-13 03:29:52,15.08836097,0.0001285,53.2188,20.7034,92.3748,267.7391,0.00020228,2.933e-05,0.0,0 STARLINK-3594,1 51895U 22022AV  24073.14574401  .00002933  00000-0  20228-3 0  9992,2 51895  53.2188  20.7034 0001285  92.3748 267.7391 15.08836097113560,6917.892,95.438,540.646,538.868,0.0
51895.0,STARLINK-3594,PAYLOAD,2024-03-13 13:02:10,15.08855529,0.0001633,53.2202,18.9192,81.5563,278.5614,0.00016102,2.277e-05,0.0,0 STARLINK-3594,1 51895U 22022AV  24073.54317219  .00002277  00000-0  16102-3 0  9995,2 51895  53.2202  18.9192 0001633  81.5563 278.5614 15.08855529113629,6917.833,95.437,540.828,538.568,0.0
51895.0,STARLINK-3594,PAYLOAD,2024-03-14 01:45:16,15.08835361,0.000142,53.2195,16.538,97.4022,262.7131,2.4439e-05,1.01e-06,0.0,0 STARLINK-3594,1 51895U 22022AV  24074.07310786  .00000101  00000-0  24439-4 0  9993,2 51895  53.2195  16.5380 0001420  97.4022 262.7131 15.08835361113703,6917.895,95.438,540.742,538.777,0.0
51895.0,STARLINK-3594,PAYLOAD,2024-03-14 06:31:25,15.08841578,0.0001407,53.2195,15.6444,93.4298,266.6855,6.8215e-05,7.98e-06,0.0,0 STARLINK-3594,1 51895U 22022AV  24074.27182335  .00000798  00000-0  68215-4 0  9994,2 51895  53.2195  15.6444 0001407  93.4298 266.6855 15.08841578113736,6917.876,95.437,540.714,538.767,0.0
51895.0,STARLINK-3594,PAYLOAD,2024-03-15 04:46:49,15.08839184,0.0001292,53.218,11.478,90.4066,269.7074,-8.4334e-05,-1.63e-05,0.0,0 STARLINK-3594,1 51895U 22022AV  24075.19918353 -.00001630  00000-0 -84334-4 0  9991,2 51895  53.2180  11.4780 0001292  90.4066 269.7074 15.08839184113871,6917.883,95.438,540.642,538.854,0.0
51895.0,STARLINK-3594,PAYLOAD,2024-03-16 04:37:36,15.08840167,0.000138,53.2184,7.0171,96.4445,263.6705,0.00015257,2.141e-05,0.0,0 STARLINK-3594,1 51895U 22022AV  24076.19278588  .00002141  00000-0  15257-3 0  9994,2 51895  53.2184   7.0171 0001380  96.4445 263.6705 15.08840167114020,6917.88,95.438,540.7,538.79,0.0
51895.0,STARLINK-3594,PAYLOAD,2024-03-17 01:17:37,15.08842187,0.0001339,53.2183,3.1532,97.3829,262.7315,0.00015459,2.173e-05,0.0,0 STARLINK-3594,1 51895U 22022AV  24077.05390629  .00002173  00000-0  15459-3 0  9990,2 51895  53.2183   3.1532 0001339  97.3829 262.7315 15.08842187114152,6917.874,95.437,540.665,538.812,0.0
